NORAD_CAT_ID,OBJECT_NAME,OBJECT_TYPE,EPOCH,MEAN_MOTION,ECCENTRICITY,INCLINATION,RA_OF_ASC_NODE,ARG_OF_PERICENTER,MEAN_ANOMALY,BSTAR,MEAN_MOTION_DOT,MEAN_MOTION_DDOT,TLE_LINE0,TLE_LINE1,TLE_LINE2,SEMIMAJOR_AXIS,PERIOD,APOGEE,PERIGEE,DECAYED
53899.0,STARLINK-5042,PAYLOAD,2024-05-18 01:09:59,15.0882667,0.0001721,53.2178,49.6159,105.1252,254.9931,0.0016697,0.00026376,0.0,0 STARLINK-5042,1 53899U 22119P   24139.04860657  .00026376  00000-0  16697-2 0  9999,2 53899  53.2178  49.6159 0001721 105.1252 254.9931 15.08826670 91537,6917.921,95.438,540.977,538.596,0.0
53899.0,STARLINK-5042,PAYLOAD,2024-05-18 10:42:17,15.08882225,0.0001456,53.2175,47.8273,90.8805,269.2354,0.0036409,0.00058203,0.0,0 STARLINK-5042,1 53899U 22119P   24139.44604108  .00058203  00000-0  36409-2 0  9997,2 53899  53.2175  47.8273 0001456  90.8805 269.2354 15.08882225 91592,6917.751,95.435,540.624,538.609,0.0
53899.0,STARLINK-5042,PAYLOAD,2024-05-18 18:39:13,15.08832473,0.0001663,53.2193,46.3407,81.9077,278.2104,-7.5197e-05,-1.484e-05,0.0,0 STARLINK-5042,1 53899U 22119P   24139.77724529 -.00001484  00000-0 -75197-4 0  9993,2 53899  53.2193  46.3407 0001663  81.9077 278.2104 15.08832473 91646,6917.903,95.438,540.919,538.618,0.0
53899.0,STARLINK-5042,PAYLOAD,2024-05-18 21:50:00,15.08840125,0.0001594,53.2188,45.7469,86.8759,273.2415,0.0011504,0.00018068,0.0,0 STARLINK-5042,1 53899U 22119P   24139.90972654  .00018068  00000-0  11504-2 0  9996,2 53899  53.2188  45.7469 0001594  86.8759 273.2415 15.08840125 92087,6917.88,95.438,540.848,538.642,0.0
53899.0,STARLINK-5042,PAYLOAD,2024-05-19 02:36:09,15.08855436,0.0001415,53.2179,44.8546,80.5598,279.5554,0.002979,0.00047462,0.0,0 STARLINK-5042,1 53899U 22119P   24140.10844596  .00047462  00000-0  29790-2 0  9999,2 53899  53.2179  44.8546 0001415  80.5598 279.5554 15.08855436 91697,6917.833,95.437,540.677,538.719,0.0
53899.0,STARLINK-5042,PAYLOAD,2024-05-20 00:51:34,15.0883658,0.0001269,53.2171,40.6913,69.0726,291.0402,0.0019697,0.00031196,0.0,0 STARLINK-5042,1 53899U 22119P   24141.03581039  .00031196  00000-0  19697-2 0  9994,2 53899  53.2171  40.6913 0001269  69.0726 291.0402 15.08836580 91839,6917.891,95.438,540.634,538.878,0.0
53899.0,STARLINK-5042,PAYLOAD,2024-05-20 16:45:26,15.08851,0.0001335,53.2174,37.7191,72.9095,287.2043,0.0025755,0.00040952,0.0,0 STARLINK-5042,1 53899U 22119P   24141.69821819  .00040952  00000-0  25755-2 0  9991,2 53899  53.2174  37.7191 0001335  72.9095 287.2043 15.08851000 91936,6917.847,95.437,540.635,538.788,0.0
53899.0,STARLINK-5042,PAYLOAD,2024-05-21 02:17:45,15.08845503,0.0001674,53.2179,35.9332,64.8054,295.3111,0.00091428,0.00014295,0.0,0 STARLINK-5042,1 53899U 22119P   24142.09565978  .00014295  00000-0  91428-3 0  9999,2 53899  53.2179  35.9332 0001674  64.8054 295.3111 15.08845503 91992,6917.864,95.437,540.887,538.571,0.0
53899.0,STARLINK-5042,PAYLOAD,2024-05-21 21:22:22,15.0884926,0.0001708,53.218,32.3647,67.7501,292.3672,0.00048583,7.454e-05,0.0,0 STARLINK-5042,1 53899U 22119P   24142.89053810  .00007454  00000-0  48583-3 0  9997,2 53899  53.2180  32.3647 0001708  67.7501 292.3672 15.08849260 92119,6917.852,95.437,540.899,538.536,0.0
53899.0,STARLINK-5042,PAYLOAD,2024-05-22 02:08:31,15.08854391,0.0001645,53.2177,31.4717,71.456,288.6611,0.00055145,8.503e-05,0.0,0 STARLINK-5042,1 53899U 22119P   24143.08925557  .00008503  00000-0  55145-3 0  9993,2 53899  53.2177  31.4717 0001645  71.4560 288.6611 15.08854391 92561,6917.836,95.437,540.839,538.563,0.0
53899.0,STARLINK-5042,PAYLOAD,2024-05-22 21:13:08,15.08849458,0.0001544,53.2171,27.9016,81.2343,278.8824,0.00019013,2.74e-05,0.0,0 STARLINK-5042,1 53899U 22119P   24143.88413181  .00002740  00000-0  19013-3 0  9997,2 53899  53.2171  27.9016 0001544  81.2343 278.8824 15.08849458 92265,6917.851,95.437,540.785,538.648,0.0
53899.0,STARLINK-5042,PAYLOAD,2024-05-23 01:59:18,15.0884342,0.0001535,53.2178,27.0106,79.6037,280.5128,4.6066e-05,4.45e-06,0.0,0 STARLINK-5042,1 53899U 22119P   24144.08285372  .00000445  00000-0  46066-4 0  9998,2 53899  53.2178  27.0106 0001535  79.6037 280.5128 15.08843420 92297,6917.87,95.437,540.797,538.673,0.0
53899.0,STARLINK-5042,PAYLOAD,2024-05-23 19:28:32,15.08858023,0.0001064,53.2164,23.7419,81.4823,278.629,0.00010938,1.454e-05,0.0,0 STARLINK-5042,1 53899U 22119P   24144.81148178  .00001454  00000-0  10938-3 0  9990,2 53899  53.2164  23.7419 0001064  81.4823 278.6290 15.08858023 92409,6917.825,95.436,540.426,538.954,0.0
53899.0,STARLINK-5042,PAYLOAD,2024-05-23 21:03:55,15.08858333,0.0001288,53.2168,23.4466,74.1563,285.9572,0.00018636,2.681e-05,0.0,0 STARLINK-5042,1 53899U 22119P   24144.87772202  .00002681  00000-0  18636-3 0  9993,2 53899  53.2168  23.4466 0001288  74.1563 285.9572 15.08858333 92835,6917.824,95.436,540.58,538.798,0.0
53899.0,STARLINK-5042,PAYLOAD,2024-05-23 22:39:18,15.0886242,0.0001444,53.2177,23.1494,77.7468,282.3686,0.0002484,3.67e-05,0.0,0 STARLINK-5042,1 53899U 22119P   24144.94395954  .00003670  00000-0  24840-3 0  9999,2 53899  53.2177  23.1494 0001444  77.7468 282.3686 15.08862420 92840,6917.812,95.436,540.676,538.678,0.0
53899.0,STARLINK-5042,PAYLOAD,2024-05-24 20:54:42,15.08831528,0.0001373,53.2174,18.9856,100.2167,259.898,-0.00027686,-4.69e-05,0.0,0 STARLINK-5042,1 53899U 22119P   24145.87132379 -.00004690  00000-0 -27686-3 0  9998,2 53899  53.2174  18.9856 0001373 100.2167 259.8980 15.08831528 92560,6917.906,95.438,540.721,538.821,0.0
53899.0,STARLINK-5042,PAYLOAD,2024-05-24 22:30:05,15.08832209,0.0001336,53.2172,18.6879,107.0474,253.0664,-0.00037719,-6.285e-05,0.0,0 STARLINK-5042,1 53899U 22119P   24145.93756143 -.00006285  00000-0 -37719-3 0  9996,2 53899  53.2172  18.6879 0001336 107.0474 253.0664 15.08832209 92994,6917.904,95.438,540.693,538.845,0.0
53899.0,STARLINK-5042,PAYLOAD,2024-05-25 08:02:24,15.08837596,0.0001333,53.2172,16.904,111.1098,249.0037,-0.0001053,-1.963e-05,0.0,0 STARLINK-5042,1 53899U 22119P   24146.33500165 -.00001963  00000-0 -10530-3 0  9992,2 53899  53.2172  16.9040 0001333 111.1098 249.0037 15.08837596 92634,6917.888,95.438,540.675,538.831,0.0
53899.0,STARLINK-5042,PAYLOAD,2024-05-25 14:23:56,15.088349,0.0001553,53.2179,15.7198,123.9079,236.2061,-0.00013569,-2.447e-05,0.0,0 STARLINK-5042,1 53899U 22119P   24146.59996459 -.00002447  00000-0 -13569-3 0  9998,2 53899  53.2179  15.7198 0001553 123.9079 236.2061 15.08834900 93098,6917.896,95.438,540.835,538.687,0.0
53899.0,STARLINK-5042,PAYLOAD,2024-05-25 20:45:30,15.08827475,0.0001307,53.2174,14.5231,105.6023,254.5113,-0.00019888,-3.451e-05,0.0,0 STARLINK-5042,1 53899U 22119P   24146.86493113 -.00003451  00000-0 -19888-3 0  9993,2 53899  53.2174  14.5231 0001307 105.6023 254.5113 15.08827475 92719,6917.919,95.438,540.688,538.88,0.0
53899.0,STARLINK-5042,PAYLOAD,2024-05-25 22:20:53,15.08816983,0.0001931,53.2184,14.2345,127.0082,233.1087,-0.00041469,-6.878e-05,0.0,0 STARLINK-5042,1 53899U 22119P   24146.93117362 -.00006878  00000-0 -41469-3 0  9996,2 53899  53.2184  14.2345 0001931 127.0082 233.1087 15.08816983 92725,6917.951,95.439,541.152,538.48,0.0
53899.0,STARLINK-5042,PAYLOAD,2024-05-26 20:36:17,15.08835139,0.0001165,53.218,10.0627,109.0009,251.1109,0.00036758,5.566e-05,0.0,0 STARLINK-5042,1 53899U 22119P   24147.85853785  .00005566  00000-0  36758-3 0  9990,2 53899  53.2180  10.0627 0001165 109.0009 251.1109 15.08835139 92860,6917.895,95.438,540.566,538.954,0.0
53899.0,STARLINK-5042,PAYLOAD,2024-05-26 22:11:40,15.08838417,0.0001156,53.2177,9.7667,104.7089,255.4031,0.00042543,6.489e-05,0.0,0 STARLINK-5042,1 53899U 22119P   24147.92477768  .00006489  00000-0  42543-3 0  9995,2 53899  53.2177   9.7667 0001156 104.7089 255.4031 15.08838417 93296,6917.885,95.438,540.55,538.951,0.0
53899.0,STARLINK-5042,PAYLOAD,2024-05-27 07:43:59,15.08853265,0.00011,53.2178,7.9826,85.8566,274.2552,0.00063301,9.804e-05,0.0,0 STARLINK-5042,1 53899U 22119P   24148.32221356  .00009804  00000-0  63301-3 0  9999,2 53899  53.2178   7.9826 0001100  85.8566 274.2552 15.08853265 92937,6917.84,95.437,540.466,538.944,0.0
53899.0,STARLINK-5042,PAYLOAD,2024-05-27 20:27:04,15.08843995,0.0001387,53.2185,5.6011,113.3932,246.7206,0.00024868,3.672e-05,0.0,0 STARLINK-5042,1 53899U 22119P   24148.85213668  .00003672  00000-0  24868-3 0  9996,2 53899  53.2185   5.6011 0001387 113.3932 246.7206 15.08843995 93016,6917.868,95.437,540.693,538.774,0.0
53899.0,STARLINK-5042,PAYLOAD,2024-05-27 22:02:27,15.08843201,0.0001244,53.2177,5.3037,109.717,250.3956,0.00021475,3.132e-05,0.0,0 STARLINK-5042,1 53899U 22119P   24148.91837686  .00003132  00000-0  21475-3 0  9997,2 53899  53.2177   5.3037 0001244 109.7170 250.3956 15.08843201 93447,6917.871,95.437,540.596,538.875,0.0
53899.0,STARLINK-5042,PAYLOAD,2024-05-28 07:34:46,15.08847144,0.0001323,53.2181,3.5194,106.2513,253.8625,0.00023848,3.51e-05,0.0,0 STARLINK-5042,1 53899U 22119P   24149.31581534  .00003510  00000-0  23848-3 0  9996,2 53899  53.2181   3.5194 0001323 106.2513 253.8625 15.08847144 93505,6917.859,95.437,540.639,538.808,0.0
53899.0,STARLINK-5042,PAYLOAD,2024-05-28 21:53:14,15.08844206,0.0001153,53.2174,0.8434,100.3084,259.8038,9.9404e-05,1.295e-05,0.0,0 STARLINK-5042,1 53899U 22119P   24149.91197558  .00001295  00000-0  99404-4 0  9991,2 53899  53.2174   0.8434 0001153 100.3084 259.8038 15.08844206 93592,6917.868,95.437,540.53,538.935,0.0
53899.0,STARLINK-5042,PAYLOAD,2024-05-28 23:28:37,15.08845237,0.0001156,53.2177,0.5462,100.0753,260.037,8.9028e-05,1.13e-05,0.0,0 STARLINK-5042,1 53899U 22119P   24149.97821553  .00001130  00000-0  89028-4 0  9995,2 53899  53.2177   0.5462 0001156 100.0753 260.0370 15.08845237 93189,6917.864,95.437,540.529,538.93,0.0
53899.0,STARLINK-5042,PAYLOAD,2024-05-29 13:47:06,15.0884045,0.0001126,53.2177,357.8719,88.6335,271.4786,7.4395e-05,8.96e-06,0.0,0 STARLINK-5042,1 53899U 22119P   24150.57437875  .00000896  00000-0  74395-4 0  9992,2 53899  53.2177 357.8719 0001126  88.6335 271.4786 15.08840450 93691,6917.879,95.438,540.523,538.965,0.0
